STARLINK-35270          
1 65882U 25224A   26060.26123764  .00015891  00000+0  54748-3 0  9993
2 65882  53.1575  50.5175 0001205  85.3842 274.7296 15.30201760 23533
STARLINK-35367          
1 65883U 25224B   26060.24857492  .00026849  00000+0  91533-3 0  9992
2 65883  53.1591  50.4406 0001273  69.2917 290.8220 15.30200682 23535
STARLINK-35384          
1 65884U 25224C   26060.26757178  .00024327  00000+0  83062-3 0  9992
2 65884  53.1582  50.5571 0001227  86.8431 273.2711 15.30206991 23534
STARLINK-35415          
1 65885U 25224D   26060.37287265  .00019188  00000+0  65825-3 0  9996
2 65885  53.1608  49.7927 0001377  95.3534 264.7623 15.30201679 23506
STARLINK-35413          
1 65886U 25224E   26060.36865182  .00031286  00000+0  10637-2 0  9999
2 65886  53.1602  49.7661 0001340  75.2650 284.8499 15.30207299 23500
STARLINK-35332          
1 65887U 25224F   26060.22852453  .00024640  00000+0  84101-3 0  9996
2 65887  53.1605  50.3112 0001214  87.6169 272.4971 15.30210203 23568
STARLINK-35362          
1 65888U 25224G   26060.20964137  .00029015  00000+0  98783-3 0  9990
2 65888  53.1596  50.9057 0001274  85.2063 274.9083 15.30203335 23520
STARLINK-35193          
1 65889U 25224H   26060.28445260  .00012596  00000+0  43669-3 0  9999
2 65889  53.1597  50.6533 0001243  89.5216 270.5927 15.30200725 23564
STARLINK-34542          
1 65890U 25224J   26060.34659791  .00026871  00000+0  91661-3 0  9990
2 65890  53.1606  50.3389 0001315  85.1079 275.0071 15.30181175 23592
STARLINK-34791          
1 65891U 25224K   26060.35609323  .00027404  00000+0  93301-3 0  9994
2 65891  53.1608  50.3909 0001687  89.2674 270.8520 15.30233267 23593
STARLINK-34853          
1 65892U 25224L   26060.25490504  .00030355  00000+0  10327-2 0  9998
2 65892  53.1582  50.4776 0001152  89.6556 270.4577 15.30202842 23513
STARLINK-34921          
1 65893U 25224M   26060.34345602  .00017390  00000+0  59820-3 0  9993
2 65893  53.1601  50.3085 0001662  85.2827 274.8364 15.30182906 23595
STARLINK-34672          
1 65894U 25224N   26060.33603773 -.00013982  00000+0 -46087-3 0  9995
2 65894  53.1593  50.2628 0001182  94.4988 265.6148 15.30196718 23599
STARLINK-34898          
1 65895U 25224P   26060.25806984  .00030400  00000+0  10340-2 0  9990
2 65895  53.1578  50.4870 0001312 103.9259 256.1887 15.30209215 23587
STARLINK-34906          
1 65896U 25224Q   26060.19908674  .00024331  00000+0  83064-3 0  9993
2 65896  53.1579  50.8318 0001382 106.1026 254.0127 15.30210485 23578
STARLINK-34934          
1 65897U 25224R   26060.37603510  .00031285  00000+0  10636-2 0  9995
2 65897  53.1595  49.8021 0001227  98.3971 261.7169 15.30211003 23551
