[{"OBJECT_NAME":"STARLINK-35270","OBJECT_ID":"2025-224A","EPOCH":"2026-03-01T06:16:10.932096","MEAN_MOTION":15.3020176,"ECCENTRICITY":0.0001205,"INCLINATION":53.1575,"RA_OF_ASC_NODE":50.5175,"ARG_OF_PERICENTER":85.3842,"MEAN_ANOMALY":274.7296,"EPHEMERIS_TYPE":0,"CLASSIFICATION_TYPE":"U","NORAD_CAT_ID":65882,"ELEMENT_SET_NO":999,"REV_AT_EPOCH":2353,"BSTAR":0.00054748,"MEAN_MOTION_DOT":0.00015891,"MEAN_MOTION_DDOT":0},{"OBJECT_NAME":"STARLINK-35367","OBJECT_ID":"2025-224B","EPOCH":"2026-03-01T05:57:56.873088","MEAN_MOTION":15.30200682,"ECCENTRICITY":0.0001273,"INCLINATION":53.1591,"RA_OF_ASC_NODE":50.4406,"ARG_OF_PERICENTER":69.2917,"MEAN_ANOMALY":290.822,"EPHEMERIS_TYPE":0,"CLASSIFICATION_TYPE":"U","NORAD_CAT_ID":65883,"ELEMENT_SET_NO":999,"REV_AT_EPOCH":2353,"BSTAR":0.00091533,"MEAN_MOTION_DOT":0.00026849,"MEAN_MOTION_DDOT":0},{"OBJECT_NAME":"STARLINK-35384","OBJECT_ID":"2025-224C","EPOCH":"2026-03-01T06:25:18.201792","MEAN_MOTION":15.30206991,"ECCENTRICITY":0.0001227,"INCLINATION":53.1582,"RA_OF_ASC_NODE":50.5571,"ARG_OF_PERICENTER":86.8431,"MEAN_ANOMALY":273.2711,"EPHEMERIS_TYPE":0,"CLASSIFICATION_TYPE":"U","NORAD_CAT_ID":65884,"ELEMENT_SET_NO":999,"REV_AT_EPOCH":2353,"BSTAR":0.00083062,"MEAN_MOTION_DOT":0.00024327,"MEAN_MOTION_DDOT":0},{"OBJECT_NAME":"STARLINK-35415","OBJECT_ID":"2025-224D","EPOCH":"2026-03-01T08:56:56.196960","MEAN_MOTION":15.30201679,"ECCENTRICITY":0.0001377,"INCLINATION":53.1608,"RA_OF_ASC_NODE":49.7927,"ARG_OF_PERICENTER":95.3534,"MEAN_ANOMALY":264.7623,"EPHEMERIS_TYPE":0,"CLASSIFICATION_TYPE":"U","NORAD_CAT_ID":65885,"ELEMENT_SET_NO":999,"REV_AT_EPOCH":2350,"BSTAR":0.00065825,"MEAN_MOTION_DOT":0.00019188,"MEAN_MOTION_DDOT":0},{"OBJECT_NAME":"STARLINK-35413","OBJECT_ID":"2025-224E","EPOCH":"2026-03-01T08:50:51.517248","MEAN_MOTION":15.30207299,"ECCENTRICITY":0.000134,"INCLINATION":53.1602,"RA_OF_ASC_NODE":49.7661,"ARG_OF_PERICENTER":75.265,"MEAN_ANOMALY":284.8499,"EPHEMERIS_TYPE":0,"CLASSIFICATION_TYPE":"U","NORAD_CAT_ID":65886,"ELEMENT_SET_NO":999,"REV_AT_EPOCH":2350,"BSTAR":0.0010637,"MEAN_MOTION_DOT":0.00031286,"MEAN_MOTION_DDOT":0},{"OBJECT_NAME":"STARLINK-35332","OBJECT_ID":"2025-224F","EPOCH":"2026-03-01T05:29:04.519392","MEAN_MOTION":15.30210203,"ECCENTRICITY":0.0001214,"INCLINATION":53.1605,"RA_OF_ASC_NODE":50.3112,"ARG_OF_PERICENTER":87.6169,"MEAN_ANOMALY":272.4971,"EPHEMERIS_TYPE":0,"CLASSIFICATION_TYPE":"U","NORAD_CAT_ID":65887,"ELEMENT_SET_NO":999,"REV_AT_EPOCH":2356,"BSTAR":0.00084101,"MEAN_MOTION_DOT":0.0002464,"MEAN_MOTION_DDOT":0},{"OBJECT_NAME":"STARLINK-35362","OBJECT_ID":"2025-224G","EPOCH":"2026-03-01T05:01:53.014368","MEAN_MOTION":15.30203335,"ECCENTRICITY":0.0001274,"INCLINATION":53.1596,"RA_OF_ASC_NODE":50.9057,"ARG_OF_PERICENTER":85.2063,"MEAN_ANOMALY":274.9083,"EPHEMERIS_TYPE":0,"CLASSIFICATION_TYPE":"U","NORAD_CAT_ID":65888,"ELEMENT_SET_NO":999,"REV_AT_EPOCH":2352,"BSTAR":0.00098783,"MEAN_MOTION_DOT":0.00029015,"MEAN_MOTION_DDOT":0},{"OBJECT_NAME":"STARLINK-35193","OBJECT_ID":"2025-224H","EPOCH":"2026-03-01T06:49:36.704640","MEAN_MOTION":15.30200725,"ECCENTRICITY":0.0001243,"INCLINATION":53.1597,"RA_OF_ASC_NODE":50.6533,"ARG_OF_PERICENTER":89.5216,"MEAN_ANOMALY":270.5927,"EPHEMERIS_TYPE":0,"CLASSIFICATION_TYPE":"U","NORAD_CAT_ID":65889,"ELEMENT_SET_NO":999,"REV_AT_EPOCH":2356,"BSTAR":0.00043669,"MEAN_MOTION_DOT":0.00012596,"MEAN_MOTION_DDOT":0},{"OBJECT_NAME":"STARLINK-34542","OBJECT_ID":"2025-224J","EPOCH":"2026-03-01T08:19:06.059424","MEAN_MOTION":15.30181175,"ECCENTRICITY":0.0001315,"INCLINATION":53.1606,"RA_OF_ASC_NODE":50.3389,"ARG_OF_PERICENTER":85.1079,"MEAN_ANOMALY":275.0071,"EPHEMERIS_TYPE":0,"CLASSIFICATION_TYPE":"U","NORAD_CAT_ID":65890,"ELEMENT_SET_NO":999,"REV_AT_EPOCH":2359,"BSTAR":0.00091661,"MEAN_MOTION_DOT":0.00026871,"MEAN_MOTION_DDOT":0},{"OBJECT_NAME":"STARLINK-34791","OBJECT_ID":"2025-224K","EPOCH":"2026-03-01T08:32:46.455072","MEAN_MOTION":15.30233267,"ECCENTRICITY":0.0001687,"INCLINATION":53.1608,"RA_OF_ASC_NODE":50.3909,"ARG_OF_PERICENTER":89.2674,"MEAN_ANOMALY":270.852,"EPHEMERIS_TYPE":0,"CLASSIFICATION_TYPE":"U","NORAD_CAT_ID":65891,"ELEMENT_SET_NO":999,"REV_AT_EPOCH":2359,"BSTAR":0.00093301,"MEAN_MOTION_DOT":0.00027404,"MEAN_MOTION_DDOT":0},{"OBJECT_NAME":"STARLINK-34853","OBJECT_ID":"2025-224L","EPOCH":"2026-03-01T06:07:03.795456","MEAN_MOTION":15.30202842,"ECCENTRICITY":0.0001152,"INCLINATION":53.1582,"RA_OF_ASC_NODE":50.4776,"ARG_OF_PERICENTER":89.6556,"MEAN_ANOMALY":270.4577,"EPHEMERIS_TYPE":0,"CLASSIFICATION_TYPE":"U","NORAD_CAT_ID":65892,"ELEMENT_SET_NO":999,"REV_AT_EPOCH":2351,"BSTAR":0.0010327,"MEAN_MOTION_DOT":0.00030355,"MEAN_MOTION_DDOT":0},{"OBJECT_NAME":"STARLINK-34921","OBJECT_ID":"2025-224M","EPOCH":"2026-03-01T08:14:34.600128","MEAN_MOTION":15.30182906,"ECCENTRICITY":0.0001662,"INCLINATION":53.1601,"RA_OF_ASC_NODE":50.3085,"ARG_OF_PERICENTER":85.2827,"MEAN_ANOMALY":274.8364,"EPHEMERIS_TYPE":0,"CLASSIFICATION_TYPE":"U","NORAD_CAT_ID":65893,"ELEMENT_SET_NO":999,"REV_AT_EPOCH":2359,"BSTAR":0.0005982,"MEAN_MOTION_DOT":0.0001739,"MEAN_MOTION_DDOT":0},{"OBJECT_NAME":"STARLINK-34672","OBJECT_ID":"2025-224N","EPOCH":"2026-03-01T08:03:53.659872","MEAN_MOTION":15.30196718,"ECCENTRICITY":0.0001182,"INCLINATION":53.1593,"RA_OF_ASC_NODE":50.2628,"ARG_OF_PERICENTER":94.4988,"MEAN_ANOMALY":265.6148,"EPHEMERIS_TYPE":0,"CLASSIFICATION_TYPE":"U","NORAD_CAT_ID":65894,"ELEMENT_SET_NO":999,"REV_AT_EPOCH":2359,"BSTAR":-0.00046087,"MEAN_MOTION_DOT":-0.00013982,"MEAN_MOTION_DDOT":0},{"OBJECT_NAME":"STARLINK-34898","OBJECT_ID":"2025-224P","EPOCH":"2026-03-01T06:11:37.234176","MEAN_MOTION":15.30209215,"ECCENTRICITY":0.0001312,"INCLINATION":53.1578,"RA_OF_ASC_NODE":50.487,"ARG_OF_PERICENTER":103.9259,"MEAN_ANOMALY":256.1887,"EPHEMERIS_TYPE":0,"CLASSIFICATION_TYPE":"U","NORAD_CAT_ID":65895,"ELEMENT_SET_NO":999,"REV_AT_EPOCH":2358,"BSTAR":0.001034,"MEAN_MOTION_DOT":0.000304,"MEAN_MOTION_DDOT":0},{"OBJECT_NAME":"STARLINK-34906","OBJECT_ID":"2025-224Q","EPOCH":"2026-03-01T04:46:41.094336","MEAN_MOTION":15.30210485,"ECCENTRICITY":0.0001382,"INCLINATION":53.1579,"RA_OF_ASC_NODE":50.8318,"ARG_OF_PERICENTER":106.1026,"MEAN_ANOMALY":254.0127,"EPHEMERIS_TYPE":0,"CLASSIFICATION_TYPE":"U","NORAD_CAT_ID":65896,"ELEMENT_SET_NO":999,"REV_AT_EPOCH":2357,"BSTAR":0.00083064,"MEAN_MOTION_DOT":0.00024331,"MEAN_MOTION_DDOT":0},{"OBJECT_NAME":"STARLINK-34934","OBJECT_ID":"2025-224R","EPOCH":"2026-03-01T09:01:29.432640","MEAN_MOTION":15.30211003,"ECCENTRICITY":0.0001227,"INCLINATION":53.1595,"RA_OF_ASC_NODE":49.8021,"ARG_OF_PERICENTER":98.3971,"MEAN_ANOMALY":261.7169,"EPHEMERIS_TYPE":0,"CLASSIFICATION_TYPE":"U","NORAD_CAT_ID":65897,"ELEMENT_SET_NO":999,"REV_AT_EPOCH":2355,"BSTAR":0.0010636,"MEAN_MOTION_DOT":0.00031285,"MEAN_MOTION_DDOT":0}]
